MEAN_MOTION;ECCENTRICITY;INCLINATION;RA_OF_ASC_NODE;ARG_OF_PERICENTER;MEAN_ANOMALY;BSTAR;MEAN_MOTION_DOT;MEAN_MOTION_DDOT;TYPE
14.54719803;0.0001003;46.9987;136.4599;23.6344;336.4586;1.7769E-5;-8.9E-7;0;Orbcomm
14.54719861;9.92E-5;46.9988;135.8147;25.6488;334.4445;1.7704E-5;-8.9E-7;0;Orbcomm
14.54720201;9.51E-5;46.9987;131.6205;29.919;330.1749;1.8856E-5;-8.4E-7;0;Orbcomm
14.54720544;9.04E-5;46.9987;127.1039;35.3716;324.7228;3.5001E-5;-1.4E-7;0;Orbcomm
14.54720774;8.57E-5;46.9987;122.5873;41.9569;318.1381;3.2692E-5;-2.4E-7;0;Orbcomm
14.54720777;8.57E-5;46.9987;122.2647;42.1633;317.9317;3.2319E-5;-2.6E-7;0;Orbcomm
14.54721007;8.18E-5;46.9988;117.7481;48.7685;311.327;3.0942E-5;-3.2E-7;0;Orbcomm
14.54721229;7.82E-5;46.9988;112.9088;56.0197;304.0761;2.9261E-5;-3.9E-7;0;Orbcomm
14.54721361;7.54E-5;46.9988;109.3599;62.0674;298.0286;2.5988E-5;-5.3E-7;0;Orbcomm
14.54721528;7.32E-5;46.9988;105.1659;69.0267;291.0696;2.3394E-5;-6.4E-7;0;Orbcomm
14.54721665;7.2E-5;46.9988;101.9397;74.3576;285.7388;2.2744E-5;-6.7E-7;0;Orbcomm
14.54721715;7.14E-5;46.9988;100.3266;77.857;282.2394;2.1765E-5;-7.1E-7;0;Orbcomm
14.54721865;7.05E-5;46.9988;97.1004;83.4624;276.634;2.2147E-5;-7.0E-7;0;Orbcomm
14.54721898;7.05E-5;46.9988;95.4872;86.9578;273.1387;2.0884E-5;-7.5E-7;0;Orbcomm
14.54722017;7.03E-5;46.9989;92.261;92.9254;267.1711;2.0392E-5;-7.7E-7;0;Orbcomm
14.54722129;7.12E-5;46.9989;89.68;97.6327;262.4638;2.102E-5;-7.5E-7;0;Orbcomm
14.54722184;7.09E-5;46.9989;87.4216;101.9538;258.1426;2.0521E-5;-7.7E-7;0;Orbcomm
14.54722288;7.26E-5;46.999;84.8407;104.9992;255.0973;2.1402E-5;-7.3E-7;0;Orbcomm
14.54722288;7.26E-5;46.999;84.8407;104.9992;255.0973;2.1402E-5;-7.3E-7;0;Orbcomm
14.54722349;7.26E-5;46.9991;82.9049;108.4659;251.6304;2.1395E-5;-7.3E-7;0;Orbcomm
14.54722448;7.45E-5;46.9991;80.324;112.4738;247.6225;2.168E-5;-7.2E-7;0;Orbcomm
14.54722553;7.51E-5;46.9992;78.0656;116.9501;243.1459;2.2568E-5;-6.8E-7;0;Orbcomm
14.54722747;7.81E-5;46.9994;73.2264;124.5013;235.5945;2.2592E-5;-6.8E-7;0;Orbcomm
14.54722782;7.92E-5;46.9994;72.2586;126.5451;233.5506;2.2062E-5;-7.0E-7;0;Orbcomm
14.54722841;8.02E-5;46.9995;70.9682;128.0678;232.0279;2.2372E-5;-6.9E-7;0;Orbcomm
14.54723061;8.39E-5;46.9996;66.4516;134.8745;225.2207;2.3044E-5;-6.6E-7;0;Orbcomm
14.54723267;8.81E-5;46.9998;61.9351;140.2352;219.8597;2.3069E-5;-6.6E-7;0;Orbcomm
14.54723492;9.26E-5;46.9999;57.4187;146.0726;214.0217;2.3507E-5;-6.4E-7;0;Orbcomm
14.54723716;9.74E-5;47;52.9022;151.0906;209.0032;2.4059E-5;-6.1E-7;0;Orbcomm
14.54723973;0.0001025;47.0001;48.3856;156.5687;203.5244;2.5117E-5;-5.7E-7;0;Orbcomm
14.54724166;0.0001056;47.0002;45.4821;161.2911;198.8013;2.6335E-5;-5.2E-7;0;Orbcomm
14.5472431;0.0001086;47.0002;43.2239;163.1208;196.9713;2.7506E-5;-4.7E-7;0;Orbcomm
14.54724452;0.0001119;47.0003;40.643;165.9715;194.12;2.7687E-5;-4.6E-7;0;Orbcomm
14.54724491;0.0001128;47.0004;39.9978;166.7652;193.3262;2.789E-5;-4.5E-7;0;Orbcomm
14.54724769;0.000118;47.0005;35.8039;170.6824;189.4082;2.9379E-5;-3.9E-7;0;Orbcomm
14.54724881;0.0001192;47.0005;34.5135;171.6937;188.3967;3.1247E-5;-3.0E-7;0;Orbcomm
14.54725134;0.0001227;47.0006;31.2875;175.115;184.9746;3.3285E-5;-2.2E-7;0;Orbcomm
14.54725281;0.0001247;47.0006;29.6746;176.019;184.0704;3.5853E-5;-1.1E-7;0;Orbcomm
14.54725573;0.0001294;47.0007;26.4484;178.9138;181.1749;3.886E-5;2.0E-8;0;Orbcomm
14.54725962;0.0001351;47.0008;21.932;182.7908;177.2969;4.0632E-5;1.0E-7;0;Orbcomm
14.54725979;0.0001355;47.0008;21.6094;183.1979;176.8897;4.0437E-5;9.0E-8;0;Orbcomm
14.54726404;0.000141;47.0008;17.0931;186.9688;173.1176;4.3342E-5;2.2E-7;0;Orbcomm
14.54726505;0.0001425;47.0008;15.8027;187.8454;172.2408;4.3775E-5;2.4E-7;0;Orbcomm
14.54726775;0.0001467;47.0008;12.2541;191.3078;168.7774;4.2783E-5;1.9E-7;0;Orbcomm
14.54726912;0.0001479;47.0007;10.9637;192.1395;167.9454;4.4058E-5;2.5E-7;0;Orbcomm
14.54727167;0.0001519;47.0007;7.7377;194.6656;165.4184;4.321E-5;2.1E-7;0;Orbcomm
14.5472749;0.0001566;47.0006;3.2212;198.4742;161.6086;4.1798E-5;1.5E-7;0;Orbcomm
14.54727798;0.0001624;47.0005;359.3499;201.3306;158.7511;4.2383E-5;1.8E-7;0;Orbcomm
14.54728158;0.0001701;47.0005;354.1882;203.7361;156.3445;3.9602E-5;6.0E-8;0;Orbcomm
14.54728464;0.0001768;47.0004;349.0265;207.4918;152.5873;3.8005E-5;-1.0E-8;0;Orbcomm
14.54728618;0.0001807;47.0003;345.1552;210.373;149.7049;3.4198E-5;-1.8E-7;0;Orbcomm
14.54728642;0.0001809;47.0003;344.8325;210.6924;149.3855;3.4219E-5;-1.8E-7;0;Orbcomm
14.54728883;0.0001861;47.0003;339.9934;214.2768;145.7996;3.1765E-5;-2.8E-7;0;Orbcomm
14.54728903;0.0001865;47.0003;339.6708;214.6232;145.4531;3.2156E-5;-2.7E-7;0;Orbcomm
14.54729151;0.0001921;47.0002;335.1543;217.5422;142.5329;3.1424E-5;-3.0E-7;0;Orbcomm
14.54729156;0.0001922;47.0002;334.8317;217.7983;142.2767;3.1209E-5;-3.1E-7;0;Orbcomm
14.54729359;0.0001971;47.0001;330.3152;221.0832;138.9904;2.9211E-5;-3.9E-7;0;Orbcomm
14.54729365;0.0001977;47;329.9925;221.2803;138.7932;2.9065E-5;-4.0E-7;0;Orbcomm
14.54729564;0.0002013;46.9999;326.4437;223.7375;136.335;2.8138E-5;-4.4E-7;0;Orbcomm
14.54729686;0.0002046;46.9998;322.5724;226.4231;133.6483;2.7113E-5;-4.8E-7;0;Orbcomm
14.54729732;0.0002049;46.9998;321.9272;226.6001;133.4713;2.6819E-5;-5.0E-7;0;Orbcomm
14.54729979;0.0002098;46.9997;316.7654;229.8879;130.1821;2.6768E-5;-5.0E-7;0;Orbcomm
14.54730011;0.0002102;46.9996;316.1202;230.2141;129.8558;2.7084E-5;-4.9E-7;0;Orbcomm
14.54730289;0.0002168;46.9995;309.0225;234.6987;125.3694;2.6023E-5;-5.3E-7;0;Orbcomm
14.54730375;0.0002195;46.9995;306.7641;235.8569;124.2107;2.5766E-5;-5.4E-7;0;Orbcomm
14.54730491;0.0002222;46.9994;303.8605;237.812;122.2549;2.5493E-5;-5.5E-7;0;Orbcomm
14.54730537;0.0002231;46.9994;302.2474;238.7832;121.2834;2.4814E-5;-5.8E-7;0;Orbcomm
14.54730704;0.000227;46.9994;297.7307;241.5767;118.4888;2.3612E-5;-6.4E-7;0;Orbcomm
14.54730704;0.000227;46.9993;297.4081;241.7985;118.267;2.3355E-5;-6.5E-7;0;Orbcomm
14.54730851;0.0002304;46.9993;292.8915;244.5708;115.4938;2.1958E-5;-7.1E-7;0;Orbcomm
14.5473086;0.0002306;46.9993;292.5689;244.7282;115.3363;2.1622E-5;-7.2E-7;0;Orbcomm
14.54730963;0.0002334;46.9993;289.3427;246.7383;113.3256;1.9728E-5;-8.0E-7;0;Orbcomm
14.54731103;0.0002353;46.9993;285.1487;249.7515;110.3116;1.8556E-5;-8.5E-7;0;Orbcomm
14.54731158;0.0002349;46.9993;283.5356;250.9408;109.1221;1.8782E-5;-8.4E-7;0;Orbcomm
14.54731287;0.0002369;46.9993;280.632;252.9753;107.0872;1.9377E-5;-8.2E-7;0;Orbcomm
14.54731308;0.0002375;46.9993;279.3417;253.6694;106.3929;1.8211E-5;-8.7E-7;0;Orbcomm
14.54731473;0.0002393;46.9993;275.4702;256.1952;103.8666;1.8085E-5;-8.8E-7;0;Orbcomm
14.54731672;0.0002418;46.9992;270.9535;258.8993;101.1619;1.886E-5;-8.4E-7;0;Orbcomm
14.54731691;0.0002419;46.9992;270.631;259.0791;100.9821;1.9053E-5;-8.3E-7;0;Orbcomm
14.54731784;0.0002412;46.9992;269.3406;260.2008;99.8604;2.1238E-5;-7.4E-7;0;Orbcomm
14.54732001;0.0002432;46.9992;264.824;262.9659;97.0949;2.2793E-5;-6.7E-7;0;Orbcomm
14.54732272;0.0002447;46.9991;259.9847;266.1386;93.9218;2.547E-5;-5.6E-7;0;Orbcomm
14.54732502;0.0002467;46.9991;255.4681;268.86;91.2001;2.6488E-5;-5.1E-7;0;Orbcomm
14.54732656;0.0002481;46.9991;252.2418;270.9257;89.1343;2.6609E-5;-5.1E-7;0;Orbcomm
14.54732963;0.000248;46.9992;246.7574;274.4999;85.5601;2.8316E-5;-4.3E-7;0;Orbcomm
14.54733254;0.0002479;46.9992;241.5957;278.0127;82.0475;2.8118E-5;-4.4E-7;0;Orbcomm
14.54733458;0.0002487;46.9992;238.047;280.2147;79.8457;2.7767E-5;-4.6E-7;0;Orbcomm
14.54733534;0.0002477;46.9992;237.0792;281.03;79.0305;2.8691E-5;-4.2E-7;0;Orbcomm
14.54733867;0.000248;46.9991;233.5304;283.1722;76.8885;3.226E-5;-2.6E-7;0;Orbcomm
14.54733896;0.0002477;46.9991;233.2078;283.4758;76.585;3.2689E-5;-2.4E-7;0;Orbcomm
14.54733903;0.0002471;46.9991;232.24;284.246;75.8149;3.0254E-5;-3.5E-7;0;Orbcomm
14.54734152;0.0002472;46.999;228.6913;286.4865;73.5748;3.0486E-5;-3.4E-7;0;Orbcomm
14.54734229;0.0002468;46.999;227.7236;287.2658;72.7956;3.1065E-5;-3.1E-7;0;Orbcomm
14.54734846;0.0002458;46.9988;223.207;290.3803;69.6817;4.361E-5;2.3E-7;0;Orbcomm
14.54734954;0.0002443;46.9987;218.3679;293.6273;66.4355;3.5105E-5;-1.4E-7;0;Orbcomm
14.5473525;0.0002433;46.9986;213.8513;296.5993;63.4642;3.5264E-5;-1.3E-7;0;Orbcomm
14.54735461;0.000242;46.9985;209.9799;299.2592;60.805;3.4624E-5;-1.6E-7;0;Orbcomm
14.54735507;0.0002415;46.9985;209.3347;299.7519;60.3125;3.4818E-5;-1.5E-7;0;Orbcomm
14.54735755;0.0002392;46.9984;204.4955;303.1503;56.9151;3.3084E-5;-2.3E-7;0;Orbcomm
14.54735975;0.0002367;46.9984;199.9788;306.2776;53.789;3.1113E-5;-3.1E-7;0;Orbcomm
14.54736104;0.0002357;46.9984;197.3978;308.0551;52.012;3.0498E-5;-3.4E-7;0;Orbcomm
14.54736177;0.000234;46.9983;195.7848;309.1912;50.8764;2.9843E-5;-3.7E-7;0;Orbcomm
14.54736193;0.0002339;46.9983;195.4622;309.463;50.6047;2.9632E-5;-3.8E-7;0;Orbcomm
14.54736312;0.0002321;46.9983;192.5586;311.4022;48.6662;2.7359E-5;-4.7E-7;0;Orbcomm
14.54736376;0.0002308;46.9983;190.623;312.8871;47.1819;2.5672E-5;-5.5E-7;0;Orbcomm
14.54736508;0.0002278;46.9982;186.7516;315.6635;44.4066;2.2693E-5;-6.8E-7;0;Orbcomm
14.54736518;0.0002276;46.9982;186.429;315.9403;44.1299;2.254E-5;-6.8E-7;0;Orbcomm
14.54736528;0.0002276;46.9982;186.1064;316.2055;43.8648;2.2284E-5;-6.9E-7;0;Orbcomm
14.54736691;0.0002239;46.998;181.2672;319.8502;40.2216;1.9542E-5;-8.1E-7;0;Orbcomm
14.54736835;0.0002203;46.9979;176.7505;323.2591;36.8141;1.7835E-5;-8.9E-7;0;Orbcomm
14.54736906;0.0002182;46.9978;174.1694;325.0565;35.0176;1.6671E-5;-9.4E-7;0;Orbcomm
14.54736959;0.0002164;46.9978;172.2338;326.6382;33.4366;1.6623E-5;-9.4E-7;0;Orbcomm
14.54737174;0.0002127;46.9977;167.717;330.2514;29.8249;1.922E-5;-8.3E-7;0;Orbcomm
14.54737633;0.0002069;46.9976;162.8776;334.1757;25.9023;2.813E-5;-4.4E-7;0;Orbcomm
14.54738204;0.0002021;46.9977;158.3609;337.8112;22.2684;3.8957E-5;3.0E-8;0;Orbcomm
14.54738565;0.0002;46.9977;155.1345;340.5026;19.5781;4.4098E-5;2.5E-7;0;Orbcomm
14.54738746;0.0001994;46.9977;154.1667;341.4699;18.6112;4.7678E-5;4.0E-7;0;Orbcomm
14.54739403;0.0001945;46.9978;150.2952;344.8312;15.2513;5.7899E-5;8.5E-7;0;Orbcomm
14.54739631;0.0001913;46.9978;149.0047;345.731;14.352;6.0076E-5;9.4E-7;0;Orbcomm
